{"fetched_at":"2026-03-29T16:36:15Z","count":15609,"tles":[{"name":"STARLINK-1156","line1":"1 45054U 20006L   26087.69889866  .00002742  00000+0  10462-3 0  9999","line2":"2 45054  53.1616 192.6954 0000949  81.0860 279.0248 15.30210312339457","category":"Starlink"}]}